     2.100          NAVIGATION                              RINEX VERSION / TYPE
fic2rin                                 07/17/2009 01:47:53 PGM / RUN BY / DATE
                                                            END OF HEADER
14 09  7 16 14  0  0.0 -.791861675680D-04  .557065504836D-11  .000000000000D+00
     .570000000000D+02 -.535000000000D+02  .413338645785D-08 -.269502882727D+01
    -.269338488579D-05  .463402841706D-02  .446476042271D-05  .515362577438D+04
     .396000000000D+06  .139698386192D-06  .858858504047D+00 -.540167093277D-07
     .988228792679D+00  .306375000000D+03 -.216711687227D+01 -.801819113270D-08
    -.154649298907D-09  .100000000000D+01  .154000000000D+04  .000000000000D+00
     .240000000000D+01  .000000000000D+00 -.931322574615D-08  .570000000000D+02
     .388806000000D+06  .400000000000D+01
15 09  7 16 14  0  0.0 -.308717135340D-03 -.250111042988D-11  .000000000000D+00
     .690000000000D+02 -.369687500000D+02  .486841707483D-08 -.251508599314D+01
    -.185519456863D-05  .148814555723D-02  .415369868279D-05  .515363624954D+04
     .396000000000D+06 -.763684511185D-07  .804814288637D+00  .372529029846D-08
     .956219097655D+00  .297656250000D+03 -.486720254652D+00 -.829784563858D-08
    -.946467995620D-10  .100000000000D+01  .154000000000D+04  .000000000000D+00
     .240000000000D+01  .000000000000D+00 -.977888703346D-08  .690000000000D+02
     .388806000000D+06  .400000000000D+01
16 09  7 16 14  0  0.0  .322577543557D-04 -.363797880709D-11  .000000000000D+00
     .103000000000D+03 -.261562500000D+02  .436839624695D-08 -.105949751088D+01
    -.130385160446D-05  .535132503137D-02  .757351517677D-05  .515357750320D+04
     .396000000000D+06 -.670552253723D-07  .293706528511D+01 -.968575477600D-07
     .969204850907D+00  .240125000000D+03 -.313093079252D+00 -.788497129785D-08
     .264296723305D-09  .100000000000D+01  .154000000000D+04  .000000000000D+00
     .240000000000D+01  .000000000000D+00 -.977888703346D-08  .103000000000D+03
     .388806000000D+06  .400000000000D+01
17 09  7 16 14  0  0.0  .707949511707D-04  .238742359215D-11  .000000000000D+00
     .420000000000D+02 -.220625000000D+02  .450947355196D-08 -.218412034277D+01
    -.102631747723D-05  .458149693441D-02  .781193375587D-05  .515370294380D+04
     .396000000000D+06 -.763684511185D-07 -.230403134166D+01 -.577419996262D-07
     .959723307254D+00  .228843750000D+03 -.263224501783D+01 -.788461414011D-08
    -.122862260563D-09  .100000000000D+01  .154000000000D+04  .000000000000D+00
     .240000000000D+01  .000000000000D+00 -.102445483208D-07  .420000000000D+02
     .388806000000D+06  .400000000000D+01
18 09  7 16 14  0  0.0 -.395365059376D-04  .318323145621D-11  .000000000000D+00
     .850000000000D+02  .786250000000D+02  .513592821774D-08 -.861195919444D+00
     .437162816525D-05  .106978125405D-01  .389292836189D-05  .515361277008D+04
     .396000000000D+06  .158324837685D-06 -.198796195265D+00  .121071934700D-06
     .941892069425D+00  .293812500000D+03 -.240649428924D+01 -.858464329914D-08
     .185722021782D-09  .100000000000D+01  .154000000000D+04  .000000000000D+00
     .240000000000D+01  .000000000000D+00 -.107102096081D-07  .850000000000D+02
     .388806000000D+06  .400000000000D+01
19 09  7 16 14  0  0.0  .188457779586D-04 -.136424205266D-11  .000000000000D+00
     .200000000000D+02 -.116562500000D+02  .464519349095D-08 -.279408843199D+01
    -.521540641785D-06  .574721919838D-02  .808574259281D-05  .515362401390D+04
     .396000000000D+06 -.223517417908D-07 -.224812381335D+01  .111758708954D-07
     .957387114856D+00  .222218750000D+03 -.324000006895D+00 -.797354641593D-08
    -.199294015681D-09  .100000000000D+01  .154000000000D+04  .000000000000D+00
     .240000000000D+01  .000000000000D+00 -.144354999065D-07  .200000000000D+02
     .388806000000D+06  .400000000000D+01
21 09  7 16 14  0  0.0  .242376700044D-05 -.216004991671D-11  .000000000000D+00
     .360000000000D+02  .659687500000D+02  .497806449923D-08  .420309251019D+00
     .356510281563D-05  .154955835314D-01  .944733619690D-05  .515360243797D+04
     .396000000000D+06  .167638063431D-07 -.125697497913D+01  .361353158951D-06
     .933478985547D+00  .185500000000D+03 -.257963551544D+01 -.831927510263D-08
    -.129291099779D-09  .100000000000D+01  .154000000000D+04  .000000000000D+00
     .240000000000D+01  .000000000000D+00 -.121071934700D-07  .360000000000D+02
     .388806000000D+06  .400000000000D+01
22 09  7 16 14  0  0.0  .195349566638D-03 -.795807864051D-12  .000000000000D+00
     .650000000000D+02  .847187500000D+02  .514199989922D-08 -.188547214297D+01
     .445544719696D-05  .518214784097D-02  .394508242607D-05  .515366005325D+04
     .396000000000D+06  .726431608200D-07 -.193216094672D+00  .204890966415D-07
     .939559715725D+00  .288531250000D+03 -.189861314255D+01 -.847571019021D-08
     .211794536378D-09  .100000000000D+01  .154000000000D+04  .000000000000D+00
     .340000000000D+01  .000000000000D+00 -.176951289177D-07  .650000000000D+02
     .388806000000D+06  .400000000000D+01
23 09  7 16 14  0  0.0  .390036497265D-03 -.113686837722D-12  .000000000000D+00
     .540000000000D+02 -.367500000000D+02  .453126017375D-08  .295447042903D+01
    -.178255140781D-05  .633014540654D-02  .367313623428D-05  .515359516716D+04
     .396000000000D+06 -.707805156708D-07  .825471689626D+00  .670552253723D-07
     .970215772650D+00  .316812500000D+03  .291666819137D+01 -.815533970263D-08
    -.728601777760D-10  .100000000000D+01  .154000000000D+04  .000000000000D+00
     .240000000000D+01  .000000000000D+00 -.200234353542D-07  .540000000000D+02
     .388806000000D+06  .400000000000D+01
24 09  7 16 14  0  0.0  .204858370125D-03  .284217094304D-11  .000000000000D+00
     .470000000000D+02  .626875000000D+02  .462054960729D-08 -.946590361037D+00
     .306591391563D-05  .661423860583D-02  .916048884392D-05  .515367462540D+04
     .396000000000D+06 -.119209289551D-06 -.122398285415D+01 -.707805156708D-07
     .950119497296D+00  .199343750000D+03 -.649297578239D+00 -.802211986778D-08
     .500020827875D-11  .100000000000D+01  .154000000000D+04  .000000000000D+00
     .240000000000D+01  .000000000000D+00 -.139698386192D-08  .470000000000D+02
     .388806000000D+06  .400000000000D+01
25 09  7 16 14  0  0.0  .510918907821D-03  .172803993337D-10  .000000000000D+00
     .240000000000D+02 -.720000000000D+02  .439946896983D-08 -.443414611347D+00
    -.363774597645D-05  .112770361593D-01  .770576298237D-05  .515364970016D+04
     .396000000000D+06 -.726431608200D-07  .177322018000D+01 -.577419996262D-07
     .970049569064D+00  .237656250000D+03 -.120899024208D+01 -.819962726167D-08
     .632169189527D-10  .100000000000D+01  .154000000000D+04  .000000000000D+00
     .240000000000D+01  .000000000000D+00 -.745058059692D-08  .240000000000D+02
     .388806000000D+06  .400000000000D+01
28 09  7 16 14  0  0.0 -.259536318481D-04 -.113686837722D-12  .000000000000D+00
     .127000000000D+03 -.175937500000D+02  .436053877680D-08 -.164728940049D+01
    -.938773155212D-06  .149426604621D-01  .753253698349D-05  .515364655495D+04
     .396000000000D+06  .340864062309D-06  .294518716344D+01  .633299350739D-07
     .967409257942D+00  .237781250000D+03 -.202140306474D+01 -.778210987040D-08
     .177150236161D-09  .100000000000D+01  .154000000000D+04  .000000000000D+00
     .340000000000D+01  .000000000000D+00 -.107102096081D-07  .127000000000D+03
     .388806000000D+06  .400000000000D+01
29 09  7 16 14  0  0.0  .399881973863D-04  .352429196937D-11  .000000000000D+00
     .430000000000D+02 -.139375000000D+02  .459376277723D-08  .405713674917D+00
    -.750645995140D-06  .334002682939D-02  .804103910923D-05  .515364141273D+04
     .396000000000D+06 -.372529029846D-08 -.229582757210D+01 -.875443220139D-07
     .959957320018D+00  .226781250000D+03 -.130025520862D+01 -.798211820155D-08
    -.281440294547D-09  .100000000000D+01  .154000000000D+04  .000000000000D+00
     .240000000000D+01  .000000000000D+00 -.884756445885D-08  .430000000000D+02
     .388806000000D+06  .400000000000D+01
30 09  7 16 14  0  0.0  .161431264132D-03  .295585778076D-11  .000000000000D+00
     .210000000000D+02 -.159687500000D+02  .492449083910D-08 -.114565502371D+01
    -.774860382080D-06  .116494885879D-01  .726617872715D-05  .515356509018D+04
     .396000000000D+06 -.124797224998D-06  .287150698570D+01  .255182385445D-06
     .952851650416D+00  .234281250000D+03  .142764294189D+01 -.831141763248D-08
     .176793078427D-09  .100000000000D+01  .154000000000D+04  .000000000000D+00
     .240000000000D+01  .000000000000D+00 -.838190317154D-08  .210000000000D+02
     .388806000000D+06  .400000000000D+01
31 09  7 16 14  0  0.0 -.638570636511D-04 -.454747350886D-12  .000000000000D+00
     .102000000000D+03 -.745625000000D+02  .414338687441D-08  .118129430919D+01
    -.407733023167D-05  .697888457216D-02  .893697142601D-05  .515375342369D+04
     .396000000000D+06  .279396772385D-07  .186577556902D+01 -.141561031342D-06
     .973221149127D+00  .212875000000D+03 -.113650940848D+01 -.786354183380D-08
     .400016662300D-10  .100000000000D+01  .154000000000D+04  .000000000000D+00
     .340000000000D+01  .000000000000D+00 -.130385160446D-07  .102000000000D+03
     .388806000000D+06  .400000000000D+01
32 09  7 16 14  0  0.0  .231057405472D-03 -.613908923697D-11  .000000000000D+00
     .145000000000D+03  .892812500000D+02  .455554689967D-08  .212133655235D+01
     .439025461674D-05  .132252986077D-01  .463239848614D-05  .515377989578D+04
     .396000000000D+06  .163912773132D-06 -.142083569002D+00 -.298023223877D-07
     .963594909710D+00  .292125000000D+03 -.114378304009D+01 -.806783605776D-08
     .582167106740D-10  .100000000000D+01  .154000000000D+04  .000000000000D+00
     .240000000000D+01  .000000000000D+00 -.325962901115D-08  .145000000000D+03
     .388806000000D+06  .400000000000D+01
